{"fetched_at":"2026-07-20T07:40:17.151Z","source":"https://celestrak.org/NORAD/elements/gp.php?GROUP=kuiper&FORMAT=JSON","constellation":"kuiper","records":[{"OBJECT_NAME":"KUIPER-00629","OBJECT_ID":"2026-151W","EPOCH":"2026-07-19T20:00:01.999008","CLASSIFICATION_TYPE":"U","MEAN_MOTION":15.2916798,"ECCENTRICITY":0.0006688,"INCLINATION":51.8797,"RA_OF_ASC_NODE":158.195,"ARG_OF_PERICENTER":172.7572,"MEAN_ANOMALY":262.7796,"EPHEMERIS_TYPE":0,"NORAD_CAT_ID":69783,"ELEMENT_SET_NO":999,"REV_AT_EPOCH":305,"BSTAR":-0.040983,"MEAN_MOTION_DOT":-0.01079487,"MEAN_MOTION_DDOT":0},{"OBJECT_NAME":"KUIPER-00631","OBJECT_ID":"2026-151X","EPOCH":"2026-07-19T20:00:01.999008","CLASSIFICATION_TYPE":"U","MEAN_MOTION":15.29912602,"ECCENTRICITY":0.0008323,"INCLINATION":51.8759,"RA_OF_ASC_NODE":158.1739,"ARG_OF_PERICENTER":174.3361,"MEAN_ANOMALY":261.9479,"EPHEMERIS_TYPE":0,"NORAD_CAT_ID":69784,"ELEMENT_SET_NO":999,"REV_AT_EPOCH":130,"BSTAR":0.0011519,"MEAN_MOTION_DOT":0.00033669,"MEAN_MOTION_DDOT":0},{"OBJECT_NAME":"KUIPER-00634","OBJECT_ID":"2026-151Y","EPOCH":"2026-07-19T20:42:02.294784","CLASSIFICATION_TYPE":"U","MEAN_MOTION":15.3781718,"ECCENTRICITY":0.0003102,"INCLINATION":51.8783,"RA_OF_ASC_NODE":157.7729,"ARG_OF_PERICENTER":145.9779,"MEAN_ANOMALY":214.1407,"EPHEMERIS_TYPE":0,"NORAD_CAT_ID":69785,"ELEMENT_SET_NO":999,"REV_AT_EPOCH":273,"BSTAR":0.00032185,"MEAN_MOTION_DOT":0.00011775,"MEAN_MOTION_DDOT":0},{"OBJECT_NAME":"KUIPER-00639","OBJECT_ID":"2026-151Z","EPOCH":"2026-07-19T08:41:20.573088","CLASSIFICATION_TYPE":"U","MEAN_MOTION":15.35008032,"ECCENTRICITY":0.00098236,"INCLINATION":51.8693,"RA_OF_ASC_NODE":160.4067,"ARG_OF_PERICENTER":175.5193,"MEAN_ANOMALY":184.5882,"EPHEMERIS_TYPE":0,"NORAD_CAT_ID":69786,"ELEMENT_SET_NO":999,"REV_AT_EPOCH":265,"BSTAR":-0.00071672776,"MEAN_MOTION_DOT":-0.00025058,"MEAN_MOTION_DDOT":0},{"OBJECT_NAME":"KUIPER-00641","OBJECT_ID":"2026-151AA","EPOCH":"2026-07-19T20:00:01.999008","CLASSIFICATION_TYPE":"U","MEAN_MOTION":15.34171848,"ECCENTRICITY":0.0012367,"INCLINATION":51.8681,"RA_OF_ASC_NODE":158.2142,"ARG_OF_PERICENTER":179.3812,"MEAN_ANOMALY":226.6784,"EPHEMERIS_TYPE":0,"NORAD_CAT_ID":69787,"ELEMENT_SET_NO":999,"REV_AT_EPOCH":336,"BSTAR":0.0011422,"MEAN_MOTION_DOT":0.00038251,"MEAN_MOTION_DDOT":0},{"OBJECT_NAME":"KUIPER-00644","OBJECT_ID":"2026-151AB","EPOCH":"2026-07-19T20:00:01.999008","CLASSIFICATION_TYPE":"U","MEAN_MOTION":15.36540157,"ECCENTRICITY":0.0008346,"INCLINATION":51.875,"RA_OF_ASC_NODE":158.0653,"ARG_OF_PERICENTER":175.1469,"MEAN_ANOMALY":307.1436,"EPHEMERIS_TYPE":0,"NORAD_CAT_ID":69788,"ELEMENT_SET_NO":999,"REV_AT_EPOCH":366,"BSTAR":0.0010731,"MEAN_MOTION_DOT":0.00038714,"MEAN_MOTION_DDOT":0},{"OBJECT_NAME":"KUIPER-00646","OBJECT_ID":"2026-151AC","EPOCH":"2026-07-19T21:09:10.093248","CLASSIFICATION_TYPE":"U","MEAN_MOTION":15.35370035,"ECCENTRICITY":0.001021,"INCLINATION":51.8708,"RA_OF_ASC_NODE":157.8881,"ARG_OF_PERICENTER":177.5116,"MEAN_ANOMALY":182.5922,"EPHEMERIS_TYPE":0,"NORAD_CAT_ID":69789,"ELEMENT_SET_NO":999,"REV_AT_EPOCH":273,"BSTAR":0.00011314,"MEAN_MOTION_DOT":0.00003567,"MEAN_MOTION_DDOT":0},{"OBJECT_NAME":"KUIPER-00647","OBJECT_ID":"2026-151AD","EPOCH":"2026-07-19T21:17:00.144672","CLASSIFICATION_TYPE":"U","MEAN_MOTION":15.34773438,"ECCENTRICITY":0.001098,"INCLINATION":51.8673,"RA_OF_ASC_NODE":157.9178,"ARG_OF_PERICENTER":180.7569,"MEAN_ANOMALY":179.3402,"EPHEMERIS_TYPE":0,"NORAD_CAT_ID":69790,"ELEMENT_SET_NO":999,"REV_AT_EPOCH":273,"BSTAR":-0.0018327,"MEAN_MOTION_DOT":-0.00062723,"MEAN_MOTION_DDOT":0},{"OBJECT_NAME":"KUIPER-00662","OBJECT_ID":"2026-151AE","EPOCH":"2026-07-19T21:01:54.028128","CLASSIFICATION_TYPE":"U","MEAN_MOTION":15.36558553,"ECCENTRICITY":0.0008079,"INCLINATION":51.8745,"RA_OF_ASC_NODE":157.8589,"ARG_OF_PERICENTER":174.9804,"MEAN_ANOMALY":185.1264,"EPHEMERIS_TYPE":0,"NORAD_CAT_ID":69791,"ELEMENT_SET_NO":999,"REV_AT_EPOCH":273,"BSTAR":0.00034699,"MEAN_MOTION_DOT":0.00012216,"MEAN_MOTION_DDOT":0}]}
