KUIPER-00629            
1 69783U 26151W   26200.83335647 -.01079487  00000+0 -40983-1 0  9999
2 69783  51.8797 158.1950 0006688 172.7572 262.7796 15.29167980  3055
KUIPER-00631            
1 69784U 26151X   26200.83335647  .00033669  00000+0  11519-2 0  9993
2 69784  51.8759 158.1739 0008323 174.3361 261.9479 15.29912602  1305
KUIPER-00634            
1 69785U 26151Y   26200.86252656  .00011775  00000+0  32185-3 0  9992
2 69785  51.8783 157.7729 0003102 145.9779 214.1407 15.37817180  2737
KUIPER-00639            
1 69786U 26151Z   26200.36204367 -.00025058  00000+0 -71673-3 0  9990
2 69786  51.8693 160.4067 0009823 175.5193 184.5882 15.35008032  2653
KUIPER-00641            
1 69787U 26151AA  26200.83335647  .00038251  00000+0  11422-2 0  9991
2 69787  51.8681 158.2142 0012367 179.3812 226.6784 15.34171848  3360
KUIPER-00644            
1 69788U 26151AB  26200.83335647  .00038714  00000+0  10731-2 0  9998
2 69788  51.8750 158.0653 0008346 175.1469 307.1436 15.36540157  3664
KUIPER-00646            
1 69789U 26151AC  26200.88136682  .00003567  00000+0  11314-3 0  9999
2 69789  51.8708 157.8881 0010210 177.5116 182.5922 15.35370035  2733
KUIPER-00647            
1 69790U 26151AD  26200.88680723 -.00062723  00000+0 -18327-2 0  9992
2 69790  51.8673 157.9178 0010980 180.7569 179.3402 15.34773438  2738
KUIPER-00662            
1 69791U 26151AE  26200.87631977  .00012216  00000+0  34699-3 0  9990
2 69791  51.8745 157.8589 0008079 174.9804 185.1264 15.36558553  2739
